start=new Date('2022-01-07T00:00:00.000Z').valueOf();
sats=[{"LAUNCH_DATE":"2021-03-24","TLE_LINE1":"1 47997U 21024W   22006.85314178 -.00000534  00000-0 -16940-4 0  9990","TLE_LINE2":"2 47997  53.0558 307.9068 0001859  61.2861 298.8314 15.06397282 45382","APOAPSIS":"548.509","FILE":"3265870","MEAN_MOTION_DDOT":"0.0000000000000","MEAN_ANOMALY":"298.8314","PERIAPSIS":"545.934","OBJECT_NAME":"STARLINK-2266","GP_ID":"193353700","MEAN_MOTION_DOT":"-0.00000534","MEAN_ELEMENT_THEORY":"SGP4","INCLINATION":"53.0558","DECAY_DATE":null,"ELEMENT_SET_NO":"999","SITE":"AFETR","CENTER_NAME":"EARTH","EPHEMERIS_TYPE":"0","OBJECT_ID":"2021-024W","RA_OF_ASC_NODE":"307.9068","BSTAR":"-0.00001694000000","EPOCH":"2022-01-06T20:28:31.449792","NORAD_CAT_ID":"47997","ARG_OF_PERICENTER":"61.2861","REV_AT_EPOCH":"4538","RCS_SIZE":"LARGE","PERIOD":"95.592","TIME_SYSTEM":"UTC","CLASSIFICATION_TYPE":"U","OBJECT_TYPE":"PAYLOAD","ECCENTRICITY":"0.00018590","COUNTRY_CODE":"US","MEAN_MOTION":"15.06397282","SEMIMAJOR_AXIS":"6925.357","REF_FRAME":"TEME"},{"LAUNCH_DATE":"2021-03-24","TLE_LINE1":"1 47998U 21024X   22006.90426421 -.00000427  00000-0 -97266-5 0  9994","TLE_LINE2":"2 47998  53.0543 282.6578 0002004  60.2953 299.8235 15.06394742 45680","MEAN_MOTION_DDOT":"0.0000000000000","FILE":"3265870","APOAPSIS":"548.618","OBJECT_NAME":"STARLINK-2296","MEAN_ANOMALY":"299.8235","PERIAPSIS":"545.842","MEAN_MOTION_DOT":"-0.00000427","GP_ID":"193354952","DECAY_DATE":null,"INCLINATION":"53.0543","MEAN_ELEMENT_THEORY":"SGP4","EPHEMERIS_TYPE":"0","ELEMENT_SET_NO":"999","SITE":"AFETR","CENTER_NAME":"EARTH","OBJECT_ID":"2021-024X","ARG_OF_PERICENTER":"60.2953","NORAD_CAT_ID":"47998","EPOCH":"2022-01-06T21:42:08.427744","BSTAR":"-0.00000972660000","RA_OF_ASC_NODE":"282.6578","RCS_SIZE":"LARGE","REV_AT_EPOCH":"4568","CLASSIFICATION_TYPE":"U","TIME_SYSTEM":"UTC","PERIOD":"95.592","REF_FRAME":"TEME","SEMIMAJOR_AXIS":"6925.365","COUNTRY_CODE":"US","MEAN_MOTION":"15.06394742","ECCENTRICITY":"0.00020040","OBJECT_TYPE":"PAYLOAD"},{"TLE_LINE2":"2 47999  53.0537 252.6095 0002594  61.6084 150.8447 15.06399828  3594","TLE_LINE1":"1 47999U 21024Y   22006.91667824 -.00019838  00000-0 -13165-2 0  9999","LAUNCH_DATE":"2021-03-24","GP_ID":"193354702","MEAN_MOTION_DOT":"-0.00019838","OBJECT_NAME":"STARLINK-2218","MEAN_ANOMALY":"150.8447","PERIAPSIS":"545.418","MEAN_MOTION_DDOT":"0.0000000000000","APOAPSIS":"549.011","FILE":"3265870","OBJECT_ID":"2021-024Y","EPHEMERIS_TYPE":"0","SITE":"AFETR","CENTER_NAME":"EARTH","ELEMENT_SET_NO":"999","DECAY_DATE":null,"MEAN_ELEMENT_THEORY":"SGP4","INCLINATION":"53.0537","MEAN_MOTION":"15.06399828","COUNTRY_CODE":"US","SEMIMAJOR_AXIS":"6925.349","REF_FRAME":"TEME","OBJECT_TYPE":"PAYLOAD","ECCENTRICITY":"0.00025940","CLASSIFICATION_TYPE":"U","PERIOD":"95.592","TIME_SYSTEM":"UTC","RCS_SIZE":"MEDIUM","REV_AT_EPOCH":"359","NORAD_CAT_ID":"47999","ARG_OF_PERICENTER":"61.6084","BSTAR":"-0.00131650000000","RA_OF_ASC_NODE":"252.6095","EPOCH":"2022-01-06T22:00:00.999936"},{"OBJECT_NAME":"STARLINK-2270","MEAN_ANOMALY":"281.9257","PERIAPSIS":"545.613","MEAN_MOTION_DOT":"-0.00014429","GP_ID":"193353951","MEAN_MOTION_DDOT":"0.0000000000000","FILE":"3265870","APOAPSIS":"548.817","TLE_LINE1":"1 48000U 21024Z   22006.91667824 -.00014429  00000-0 -95167-3 0  9997","TLE_LINE2":"2 48000  53.0537 237.5970 0002313  53.0441 281.9257 15.06399425  3591","LAUNCH_DATE":"2021-03-24","CLASSIFICATION_TYPE":"U","TIME_SYSTEM":"UTC","PERIOD":"95.592","REF_FRAME":"TEME","SEMIMAJOR_AXIS":"6925.350","MEAN_MOTION":"15.06399425","COUNTRY_CODE":"US","ECCENTRICITY":"0.00023130","OBJECT_TYPE":"PAYLOAD","ARG_OF_PERICENTER":"53.0441","NORAD_CAT_ID":"48000","EPOCH":"2022-01-06T22:00:00.999936","RA_OF_ASC_NODE":"237.5970","BSTAR":"-0.00095167000000","RCS_SIZE":"LARGE","REV_AT_EPOCH":"359","OBJECT_ID":"2021-024Z","DECAY_DATE":null,"INCLINATION":"53.0537","MEAN_ELEMENT_THEORY":"SGP4","EPHEMERIS_TYPE":"0","CENTER_NAME":"EARTH","SITE":"AFETR","ELEMENT_SET_NO":"999"},{"TLE_LINE2":"2 48002  53.0528 257.6030 0002151  59.2136 185.7252 15.06396488  3594","TLE_LINE1":"1 48002U 21024AB  22006.91667824 -.00022227  00000-0 -14780-2 0  9995","LAUNCH_DATE":"2021-03-24","MEAN_MOTION_DOT":"-0.00022227","GP_ID":"193354201","OBJECT_NAME":"STARLINK-2265","PERIAPSIS":"545.735","MEAN_ANOMALY":"185.7252","MEAN_MOTION_DDOT":"0.0000000000000","FILE":"3265870","APOAPSIS":"548.714","OBJECT_ID":"2021-024AB","EPHEMERIS_TYPE":"0","ELEMENT_SET_NO":"999","SITE":"AFETR","CENTER_NAME":"EARTH","DECAY_DATE":null,"INCLINATION":"53.0528","MEAN_ELEMENT_THEORY":"SGP4","SEMIMAJOR_AXIS":"6925.359","REF_FRAME":"TEME","MEAN_MOTION":"15.06396488","COUNTRY_CODE":"US","ECCENTRICITY":"0.00021510","OBJECT_TYPE":"PAYLOAD","CLASSIFICATION_TYPE":"U","TIME_SYSTEM":"UTC","PERIOD":"95.592","RCS_SIZE":"LARGE","REV_AT_EPOCH":"359","ARG_OF_PERICENTER":"59.2136","NORAD_CAT_ID":"48002","EPOCH":"2022-01-06T22:00:00.999936","BSTAR":"-0.00147800000000","RA_OF_ASC_NODE":"257.6030"},{"MEAN_MOTION_DDOT":"0.0000000000000","APOAPSIS":"548.504","FILE":"3265870","MEAN_MOTION_DOT":"0.00002549","GP_ID":"193354452","OBJECT_NAME":"STARLINK-2263","MEAN_ANOMALY":"297.0181","PERIAPSIS":"545.936","LAUNCH_DATE":"2021-03-24","TLE_LINE2":"2 48003  53.0566 332.7257 0001854  63.0997 297.0181 15.06397918 44974","TLE_LINE1":"1 48003U 21024AC  22006.88954063  .00002549  00000-0  18995-3 0  9992","RCS_SIZE":"LARGE","REV_AT_EPOCH":"4497","ARG_OF_PERICENTER":"63.0997","NORAD_CAT_ID":"48003","EPOCH":"2022-01-06T21:20:56.310432","RA_OF_ASC_NODE":"332.7257","BSTAR":"0.00018995000000","SEMIMAJOR_AXIS":"6925.355","REF_FRAME":"TEME","MEAN_MOTION":"15.06397918","COUNTRY_CODE":"US","ECCENTRICITY":"0.00018540","OBJECT_TYPE":"PAYLOAD","CLASSIFICATION_TYPE":"U","TIME_SYSTEM":"UTC","PERIOD":"95.592","EPHEMERIS_TYPE":"0","ELEMENT_SET_NO":"999","SITE":"AFETR","CENTER_NAME":"EARTH","DECAY_DATE":null,"INCLINATION":"53.0566","MEAN_ELEMENT_THEORY":"SGP4","OBJECT_ID":"2021-024AC"},{"OBJECT_ID":"2021-024AD","MEAN_ELEMENT_THEORY":"SGP4","INCLINATION":"53.0367","DECAY_DATE":null,"CENTER_NAME":"EARTH","SITE":"AFETR","ELEMENT_SET_NO":"999","EPHEMERIS_TYPE":"0","PERIOD":"90.517","TIME_SYSTEM":"UTC","CLASSIFICATION_TYPE":"U","OBJECT_TYPE":"PAYLOAD","ECCENTRICITY":"0.00016680","MEAN_MOTION":"15.90862377","COUNTRY_CODE":"US","REF_FRAME":"TEME","SEMIMAJOR_AXIS":"6678.005","BSTAR":"0.00042946000000","RA_OF_ASC_NODE":"204.9709","EPOCH":"2022-01-06T22:00:00.999936","NORAD_CAT_ID":"48004","ARG_OF_PERICENTER":"159.9802","REV_AT_EPOCH":"373","RCS_SIZE":"LARGE","TLE_LINE1":"1 48004U 21024AD  22006.91667824  .00134272  17735-4  42946-3 0  9992","TLE_LINE2":"2 48004  53.0367 204.9709 0001668 159.9802 110.2000 15.90862377  3733","LAUNCH_DATE":"2021-03-24","PERIAPSIS":"298.757","MEAN_ANOMALY":"110.2000","OBJECT_NAME":"STARLINK-2261","GP_ID":"193355203","MEAN_MOTION_DOT":"0.00134272","APOAPSIS":"300.984","FILE":"3265870","MEAN_MOTION_DDOT":"0.0000177350000"},{"LAUNCH_DATE":"2021-03-24","TLE_LINE1":"1 48005U 21024AE  22006.60112340 -.00000212  00000-0  46510-5 0  9990","TLE_LINE2":"2 48005  53.0544 304.0367 0001368  69.6493 290.4643 15.06389085 45358","APOAPSIS":"548.194","FILE":"3265870","MEAN_MOTION_DDOT":"0.0000000000000","PERIAPSIS":"546.300","MEAN_ANOMALY":"290.4643","OBJECT_NAME":"STARLINK-2254","MEAN_MOTION_DOT":"-0.00000212","GP_ID":"193353451","INCLINATION":"53.0544","MEAN_ELEMENT_THEORY":"SGP4","DECAY_DATE":null,"SITE":"AFETR","CENTER_NAME":"EARTH","ELEMENT_SET_NO":"999","EPHEMERIS_TYPE":"0","OBJECT_ID":"2021-024AE","EPOCH":"2022-01-06T14:25:37.061760","RA_OF_ASC_NODE":"304.0367","BSTAR":"0.00000465100000","ARG_OF_PERICENTER":"69.6493","NORAD_CAT_ID":"48005","REV_AT_EPOCH":"4535","RCS_SIZE":"LARGE","TIME_SYSTEM":"UTC","PERIOD":"95.593","CLASSIFICATION_TYPE":"U","ECCENTRICITY":"0.00013680","OBJECT_TYPE":"PAYLOAD","REF_FRAME":"TEME","SEMIMAJOR_AXIS":"6925.382","MEAN_MOTION":"15.06389085","COUNTRY_CODE":"US"},{"TLE_LINE2":"2 48008  53.0522 237.5972 0002817  58.8323  96.1177 15.06386148  3591","TLE_LINE1":"1 48008U 21024AH  22006.91667824 -.00014243  00000-0 -93946-3 0  9992","LAUNCH_DATE":"2021-03-24","MEAN_MOTION_DOT":"-0.00014243","GP_ID":"193353701","OBJECT_NAME":"STARLINK-2271","MEAN_ANOMALY":"96.1177","PERIAPSIS":"545.305","MEAN_MOTION_DDOT":"0.0000000000000","APOAPSIS":"549.207","FILE":"3265870","OBJECT_ID":"2021-024AH","EPHEMERIS_TYPE":"0","CENTER_NAME":"EARTH","SITE":"AFETR","ELEMENT_SET_NO":"999","DECAY_DATE":null,"INCLINATION":"53.0522","MEAN_ELEMENT_THEORY":"SGP4","REF_FRAME":"TEME","SEMIMAJOR_AXIS":"6925.391","MEAN_MOTION":"15.06386148","COUNTRY_CODE":"US","ECCENTRICITY":"0.00028170","OBJECT_TYPE":"PAYLOAD","CLASSIFICATION_TYPE":"U","TIME_SYSTEM":"UTC","PERIOD":"95.593","RCS_SIZE":"LARGE","REV_AT_EPOCH":"359","ARG_OF_PERICENTER":"58.8323","NORAD_CAT_ID":"48008","EPOCH":"2022-01-06T22:00:00.999936","BSTAR":"-0.00093946000000","RA_OF_ASC_NODE":"237.5972"},{"TLE_LINE1":"1 48009U 21024AJ  22006.88306585  .00000587  00000-0  58314-4 0  9998","TLE_LINE2":"2 48009  53.0559 312.7498 0001945  58.8774 301.2406 15.06393552 45264","LAUNCH_DATE":"2021-03-24","MEAN_ANOMALY":"301.2406","PERIAPSIS":"545.886","OBJECT_NAME":"STARLINK-2153","GP_ID":"193354953","MEAN_MOTION_DOT":"0.00000587","APOAPSIS":"548.580","FILE":"3265870","MEAN_MOTION_DDOT":"0.0000000000000","OBJECT_ID":"2021-024AJ","MEAN_ELEMENT_THEORY":"SGP4","INCLINATION":"53.0559","DECAY_DATE":null,"ELEMENT_SET_NO":"999","SITE":"AFETR","CENTER_NAME":"EARTH","EPHEMERIS_TYPE":"0","PERIOD":"95.593","TIME_SYSTEM":"UTC","CLASSIFICATION_TYPE":"U","OBJECT_TYPE":"PAYLOAD","ECCENTRICITY":"0.00019450","MEAN_MOTION":"15.06393552","COUNTRY_CODE":"US","REF_FRAME":"TEME","SEMIMAJOR_AXIS":"6925.368","RA_OF_ASC_NODE":"312.7498","BSTAR":"0.00005831400000","EPOCH":"2022-01-06T21:11:36.889440","NORAD_CAT_ID":"48009","ARG_OF_PERICENTER":"58.8774","REV_AT_EPOCH":"4526","RCS_SIZE":"LARGE"}];
